NORAD_CAT_ID,OBJECT_NAME,OBJECT_TYPE,EPOCH,MEAN_MOTION,ECCENTRICITY,INCLINATION,RA_OF_ASC_NODE,ARG_OF_PERICENTER,MEAN_ANOMALY,BSTAR,MEAN_MOTION_DOT,MEAN_MOTION_DDOT,TLE_LINE0,TLE_LINE1,TLE_LINE2,SEMIMAJOR_AXIS,PERIOD,APOGEE,PERIGEE,DECAYED
53700.0,STARLINK-4725,PAYLOAD,2023-12-14 04:16:48,15.08841183,0.000205,53.2187,309.2181,100.8948,259.2274,-1.2146e-05,-4.82e-06,0.0,0 STARLINK-4725,1 53700U 22107A   23348.17834006 -.00000482  00000-0 -12146-4 0  9990,2 53700  53.2187 309.2181 0002050 100.8948 259.2274 15.08841183 70843,6917.877,95.437,541.16,538.324,0.0
53700.0,STARLINK-4725,PAYLOAD,2023-12-14 20:10:39,15.08836932,0.0002045,53.2186,306.2382,106.3476,253.7741,3.8317e-05,3.22e-06,0.0,0 STARLINK-4725,1 53700U 22107A   23348.84073963  .00000322  00000-0  38317-4 0  9990,2 53700  53.2186 306.2382 0002045 106.3476 253.7741 15.08836932 71691,6917.89,95.438,541.169,538.34,0.0
53700.0,STARLINK-4725,PAYLOAD,2023-12-15 04:07:35,15.08840914,0.0001892,53.2175,304.7506,96.9923,263.1285,6.759e-05,7.88e-06,0.0,0 STARLINK-4725,1 53700U 22107A   23349.17193678  .00000788  00000-0  67590-4 0  9994,2 53700  53.2175 304.7506 0001892  96.9923 263.1285 15.08840914 71749,6917.878,95.437,541.051,538.434,0.0
53700.0,STARLINK-4725,PAYLOAD,2023-12-16 02:23:00,15.08831778,0.0001907,53.2182,300.5828,109.6779,250.4419,7.0254e-06,-1.76e-06,0.0,0 STARLINK-4725,1 53700U 22107A   23350.09930765 -.00000176  00000-0  70254-5 0  9997,2 53700  53.2182 300.5828 0001907 109.6779 250.4419 15.08831778 71135,6917.906,95.438,541.09,538.451,0.0
53700.0,STARLINK-4725,PAYLOAD,2023-12-17 03:49:10,15.08841713,0.0001745,53.2177,295.829,101.8403,258.2785,7.1779e-05,8.55e-06,0.0,0 STARLINK-4725,1 53700U 22107A   23351.15914404  .00000855  00000-0  71779-4 0  9992,2 53700  53.2177 295.8290 0001745 101.8403 258.2785 15.08841713 71295,6917.875,95.437,540.947,538.533,0.0
53700.0,STARLINK-4725,PAYLOAD,2023-12-18 03:39:56,15.0884878,0.0001915,53.2193,291.3684,71.9357,288.1843,0.0002319,3.405e-05,0.0,0 STARLINK-4725,1 53700U 22107A   23352.15273840  .00003405  00000-0  23190-3 0  9992,2 53700  53.2193 291.3684 0001915  71.9357 288.1843 15.08848780 72193,6917.854,95.437,541.043,538.394,0.0
53700.0,STARLINK-4725,PAYLOAD,2023-12-19 03:30:44,15.08837761,0.0001366,53.2176,286.9109,110.3333,249.7806,-2.3212e-05,-6.57e-06,0.0,0 STARLINK-4725,1 53700U 22107A   23353.14634848 -.00000657  00000-0 -23212-4 0  9995,2 53700  53.2176 286.9109 0001366 110.3333 249.7806 15.08837761 71590,6917.887,95.438,540.697,538.807,0.0
53700.0,STARLINK-4725,PAYLOAD,2023-12-20 01:46:08,15.08845654,0.0001504,53.2158,282.7497,79.8542,280.2619,5.2777e-05,5.52e-06,0.0,0 STARLINK-4725,1 53700U 22107A   23354.07370889  .00000552  00000-0  52777-4 0  9990,2 53700  53.2158 282.7497 0001504  79.8542 280.2619 15.08845654 72480,6917.863,95.437,540.769,538.688,0.0
53700.0,STARLINK-4725,PAYLOAD,2023-12-20 22:26:08,15.08847432,0.0001639,53.218,278.883,113.7949,246.3215,0.00025755,3.814e-05,0.0,0 STARLINK-4725,1 53700U 22107A   23354.93482625  .00003814  00000-0  25755-3 0  9996,2 53700  53.2180 278.8830 0001639 113.7949 246.3215 15.08847432 72616,6917.858,95.437,540.857,538.589,0.0
53700.0,STARLINK-4725,PAYLOAD,2023-12-21 01:36:55,15.08851883,0.0001542,53.2178,278.2846,97.4115,262.7052,0.00029382,4.393e-05,0.0,0 STARLINK-4725,1 53700U 22107A   23355.06730422  .00004393  00000-0  29382-3 0  9995,2 53700  53.2178 278.2846 0001542  97.4115 262.7052 15.08851883 71884,6917.844,95.437,540.776,538.642,0.0
53700.0,STARLINK-4725,PAYLOAD,2023-12-21 22:16:56,15.08843361,0.000141,53.2169,274.4164,92.5756,267.5398,3.8604e-05,3.27e-06,0.0,0 STARLINK-4725,1 53700U 22107A   23355.92842705  .00000327  00000-0  38604-4 0  9999,2 53700  53.2169 274.4164 0001410  92.5756 267.5398 15.08843361 72762,6917.87,95.437,540.711,538.76,0.0
53700.0,STARLINK-4725,PAYLOAD,2023-12-22 01:27:42,15.08844737,0.0001478,53.2166,273.8172,106.2702,253.8453,6.0408e-05,6.74e-06,0.0,0 STARLINK-4725,1 53700U 22107A   23356.06090492  .00000674  00000-0  60408-4 0  9995,2 53700  53.2166 273.8172 0001478 106.2702 253.8453 15.08844737 72037,6917.866,95.437,540.753,538.708,0.0
53700.0,STARLINK-4725,PAYLOAD,2023-12-22 22:07:43,15.0884031,0.0001512,53.2162,269.9529,102.5369,257.5792,-0.00010667,-1.985e-05,0.0,0 STARLINK-4725,1 53700U 22107A   23356.92202808 -.00001985  00000-0 -10667-3 0  9995,2 53700  53.2162 269.9529 0001512 102.5369 257.5792 15.08840310 72919,6917.879,95.438,540.79,538.698,0.0
53700.0,STARLINK-4725,PAYLOAD,2023-12-23 01:18:29,15.08841971,0.0001579,53.2168,269.3577,102.964,257.1528,-6.6585e-05,-1.348e-05,0.0,0 STARLINK-4725,1 53700U 22107A   23357.05450653 -.00001348  00000-0 -66585-4 0  9997,2 53700  53.2168 269.3577 0001579 102.9640 257.1528 15.08841971 72187,6917.874,95.437,540.832,538.647,0.0
53700.0,STARLINK-4725,PAYLOAD,2023-12-23 18:47:44,15.08829409,0.0001763,53.2175,266.0931,109.8515,250.2668,0.00019343,2.791e-05,0.0,0 STARLINK-4725,1 53700U 22107A   23357.78315593  .00002791  00000-0  19343-3 0  9990,2 53700  53.2175 266.0931 0001763 109.8515 250.2668 15.08829409 72298,6917.913,95.438,540.997,538.558,0.0
53700.0,STARLINK-4725,PAYLOAD,2023-12-23 21:58:30,15.08839203,0.0001291,53.2174,265.4988,76.0236,284.09,0.00010895,1.446e-05,0.0,0 STARLINK-4725,1 53700U 22107A   23357.91563190  .00001446  00000-0  10895-3 0  9992,2 53700  53.2174 265.4988 0001291  76.0236 284.0900 15.08839203 73066,6917.883,95.438,540.641,538.855,0.0
53700.0,STARLINK-4725,PAYLOAD,2023-12-24 02:44:39,15.08850563,0.0001674,53.218,264.6057,113.4808,246.636,7.3184e-05,8.77e-06,0.0,0 STARLINK-4725,1 53700U 22107A   23358.11434463  .00000877  00000-0  73184-4 0  9993,2 53700  53.2180 264.6057 0001674 113.4808 246.6360 15.08850563 72343,6917.848,95.437,540.871,538.555,0.0
53700.0,STARLINK-4725,PAYLOAD,2023-12-24 21:49:17,15.08837128,0.000181,53.2175,261.0394,95.1101,265.0097,2.5703e-05,1.21e-06,0.0,0 STARLINK-4725,1 53700U 22107A   23358.90923570  .00000121  00000-0  25703-4 0  9998,2 53700  53.2175 261.0394 0001810  95.1101 265.0097 15.08837128 73217,6917.889,95.438,541.006,538.502,0.0
53700.0,STARLINK-4725,PAYLOAD,2023-12-25 02:35:27,15.08841537,0.0001654,53.2173,260.1459,105.7478,254.3696,0.00014703,2.053e-05,0.0,0 STARLINK-4725,1 53700U 22107A   23359.10795360  .00002053  00000-0  14703-3 0  9998,2 53700  53.2173 260.1459 0001654 105.7478 254.3696 15.08841537 72492,6917.876,95.437,540.885,538.596,0.0
53700.0,STARLINK-4725,PAYLOAD,2023-12-25 21:40:04,15.08839664,0.0001697,53.2172,256.5758,113.1593,246.9578,1.2065e-05,-9.6e-07,0.0,0 STARLINK-4725,1 53700U 22107A   23359.90283555 -.00000096  00000-0  12065-4 0  9990,2 53700  53.2172 256.5758 0001697 113.1593 246.9578 15.08839664 73361,6917.881,95.438,540.92,538.572,0.0
53700.0,STARLINK-4725,PAYLOAD,2023-12-26 02:26:14,15.0884379,0.0001673,53.2167,255.6832,108.6257,251.4917,8.4278e-05,1.054e-05,0.0,0 STARLINK-4725,1 53700U 22107A   23360.10155399  .00001054  00000-0  84278-4 0  9997,2 53700  53.2167 255.6832 0001673 108.6257 251.4917 15.08843790 73394,6917.869,95.437,540.891,538.576,0.0
53700.0,STARLINK-4725,PAYLOAD,2023-12-26 21:30:52,15.0884228,0.0001756,53.2169,252.1101,114.664,245.4535,8.7034e-05,1.097e-05,0.0,0 STARLINK-4725,1 53700U 22107A   23360.89643558  .00001097  00000-0  87034-4 0  9992,2 53700  53.2169 252.1101 0001756 114.6640 245.4535 15.08842280 73518,6917.873,95.437,540.953,538.524,0.0
53700.0,STARLINK-4725,PAYLOAD,2023-12-27 02:17:01,15.08846697,0.0001656,53.2174,251.2175,98.398,261.72,0.00016529,2.344e-05,0.0,0 STARLINK-4725,1 53700U 22107A   23361.09515335  .00002344  00000-0  16529-3 0  9992,2 53700  53.2174 251.2175 0001656  98.3980 261.7200 15.08846697 72794,6917.86,95.437,540.871,538.579,0.0
53700.0,STARLINK-4725,PAYLOAD,2023-12-27 21:21:39,15.08843354,0.0001647,53.2176,247.6468,131.396,228.7174,1.0046e-06,-2.72e-06,0.0,0 STARLINK-4725,1 53700U 22107A   23361.89003515 -.00000272  00000-0  10046-5 0  9991,2 53700  53.2176 247.6468 0001647 131.3960 228.7174 15.08843354 73663,6917.87,95.437,540.875,538.596,0.0
53700.0,STARLINK-4725,PAYLOAD,2023-12-28 02:07:48,15.08844222,0.0001539,53.2161,246.761,103.5559,256.5605,7.2761e-05,8.7e-06,0.0,0 STARLINK-4725,1 53700U 22107A   23362.08875535  .00000870  00000-0  72761-4 0  9996,2 53700  53.2161 246.7610 0001539 103.5559 256.5605 15.08844222 72944,6917.867,95.437,540.797,538.668,0.0
53700.0,STARLINK-4725,PAYLOAD,2023-12-28 21:12:26,15.08844875,0.0001676,53.2164,243.1909,118.8172,241.2989,2.9813e-05,1.87e-06,0.0,0 STARLINK-4725,1 53700U 22107A   23362.88363505  .00000187  00000-0  29813-4 0  9994,2 53700  53.2164 243.1909 0001676 118.8172 241.2989 15.08844875 73818,6917.865,95.437,540.89,538.571,0.0
53700.0,STARLINK-4725,PAYLOAD,2023-12-29 01:58:35,15.08843458,0.000158,53.2165,242.3006,108.2808,251.8356,5.9224e-05,6.55e-06,0.0,0 STARLINK-4725,1 53700U 22107A   23363.08235612  .00000655  00000-0  59224-4 0  9993,2 53700  53.2165 242.3006 0001580 108.2808 251.8356 15.08843458 73845,6917.87,95.437,540.828,538.642,0.0
53700.0,STARLINK-4725,PAYLOAD,2023-12-29 19:27:50,15.08836481,0.0001481,53.2159,239.0297,101.0067,259.1092,0.00017226,2.454e-05,0.0,0 STARLINK-4725,1 53700U 22107A   23363.81099991  .00002454  00000-0  17226-3 0  9996,2 53700  53.2159 239.0297 0001481 101.0067 259.1092 15.08836481 73207,6917.891,95.438,540.781,538.732,0.0
53700.0,STARLINK-4725,PAYLOAD,2023-12-29 22:38:36,15.0884396,0.0001468,53.2168,238.4348,95.3719,264.7441,3.3105e-05,2.39e-06,0.0,0 STARLINK-4725,1 53700U 22107A   23363.94347711  .00000239  00000-0  33105-4 0  9990,2 53700  53.2168 238.4348 0001468  95.3719 264.7441 15.08843960 73975,6917.868,95.437,540.749,538.718,0.0
53700.0,STARLINK-4725,PAYLOAD,2023-12-30 01:49:22,15.08839195,0.0001412,53.2168,237.8409,100.7679,259.3472,8.3909e-05,1.048e-05,0.0,0 STARLINK-4725,1 53700U 22107A   23364.07595826  .00001048  00000-0  83909-4 0  9993,2 53700  53.2168 237.8409 0001412 100.7679 259.3472 15.08839195 73992,6917.883,95.438,540.725,538.771,0.0
